PHASE 3B (AO-10)        
1 14129U 83058B   21003.85505637  .00000318  00000-0  00000-0 0  9998
2 14129  25.7584 182.1741 6071305 298.2469  13.9288  2.05866168254538
UOSAT 2 (UO-11)         
1 14781U 84021B   21005.07246265  .00000131  00000-0  22166-4 0  9992
2 14781  97.5895  13.0010 0006992 256.5209 103.5227 14.83234211982712
LUSAT (LO-19)           
1 20442U 90005G   21005.44712875  .00000008  00000-0  19354-4 0  9996
2 20442  98.7201 319.6333 0010678 282.0478  77.9509 14.32972686617540
EYESAT A (AO-27)        
1 22825U 93061C   21005.50171349 -.00000007  00000-0  15244-4 0  9994
2 22825  98.9244  19.0545 0009034 143.6172 216.5625 14.30102790422968
ITAMSAT (IO-26)         
1 22826U 93061D   21005.51060871 -.00000006  00000-0  15728-4 0  9999
2 22826  98.9184  18.9883 0009735 132.5398 227.6607 14.30440224423185
RADIO ROSTO (RS-15)     
1 23439U 94085A   21004.53761471 -.00000037  00000-0  15882-3 0  9996
2 23439  64.8165 281.0592 0155501   4.6895 355.5444 11.27569904 71854
JAS-2 (FO-29)           
1 24278U 96046B   21005.18168045 -.00000047  00000-0 -10238-4 0  9990
2 24278  98.5861  94.6693 0349918 212.4100 145.5113 13.53101866204418
TECHSAT 1B (GO-32)      
1 25397U 98043D   21004.58557910 -.00000002  00000-0  18721-4 0  9993
2 25397  98.7530 310.7601 0001361 149.5964 210.5293 14.23698601168172
ISS (ZARYA)             
1 25544U 98067A   21005.59847714  .00000403  00000-0  15317-4 0  9991
2 25544  51.6457  66.9356 0000702 179.7454 338.7665 15.49254619263398
PCSAT (NO-44)           
1 26931U 01043C   21004.44620003 -.00000027  00000-0  21510-4 0  9998
2 26931  67.0518 343.6999 0007433 272.7145  87.3105 14.30601481  5780
SAUDISAT 1C (SO-50)     
1 27607U 02058C   21005.45707477  .00000042  00000-0  26308-4 0  9995
2 27607  64.5555 116.7486 0029472  94.9502 265.4966 14.75699711970666
CUTE-1 (CO-55)          
1 27844U 03031E   21005.47870297  .00000047  00000-0  40658-4 0  9992
2 27844  98.6816  16.1567 0009746 184.8328 175.2757 14.22280272908855
CUBESAT XI-IV (CO-57)   
1 27848U 03031J   21005.00140866  .00000032  00000-0  34506-4 0  9996
2 27848  98.6876  16.2545 0009401 199.2428 160.8396 14.21861296908614
MOZHAYETS 4 (RS-22)     
1 27939U 03042A   21005.43075610  .00000129  00000-0  31800-4 0  9991
2 27939  98.1162 143.9256 0014143  77.5669 282.7130 14.66930117923625
CUBESAT XI-V            
1 28895U 05043F   21005.13236869  .00000148  00000-0  37211-4 0  9991
2 28895  98.0351 142.1925 0016803   9.5997 350.5523 14.63850222810343
CUTE-1.7+APD II (CO-65) 
1 32785U 08021C   21005.46851945  .00000296  00000-0  37367-4 0  9993
2 32785  97.5934 350.8311 0012959 176.8402 183.2899 14.88605355687993
DELFI-C3 (DO-64)        
1 32789U 08021G   21004.59105657  .00001922  00000-0  12748-3 0  9994
2 32789  97.3961  46.1594 0011501 353.3220   6.7853 15.08358460692120
SEEDS II (CO-66)        
1 32791U 08021J   21004.91624083  .00000583  00000-0  63856-4 0  9991
2 32791  97.5564 356.3519 0013981 145.8393 214.3728 14.91237532688485
YUBILEINY (RS-30)       
1 32953U 08025A   21005.32977037  .00000028  00000-0  12906-3 0  9994
2 32953  82.5025 152.3827 0018836 334.4008  25.6136 12.43099465572710
KKS-1 (KISEKI)          
1 33499U 09002H   21005.18942669  .00000118  00000-0  25304-4 0  9990
2 33499  98.2899 231.2827 0008657 194.4048 165.6915 14.75603385642766
SWISSCUBE               
1 35932U 09051B   21004.51127848  .00000146  00000-0  43963-4 0  9990
2 35932  98.6065 199.2910 0006798 225.2953 134.7691 14.56472437599093
BEESAT-1                
1 35933U 09051C   21005.10209112  .00000121  00000-0  38268-4 0  9997
2 35933  98.6044 201.7587 0004852 236.2534 123.8201 14.56538531599337
ITUPSAT1                
1 35935U 09051E   21005.07806133  .00000084  00000-0  30415-4 0  9995
2 35935  98.6150 201.9027 0007172 238.2278 121.8220 14.55676881599039
XIWANG-1 (HOPE-1)       
1 36122U 09072B   21004.43671185 -.00000036  00000-0  16487-4 0  9994
2 36122 100.1113 352.0432 0008083 119.0567 241.1359 13.16358494531312
JUGNU                   
1 37839U 11058B   21004.59465951  .00000299  00000-0  17477-4 0  9996
2 37839  19.9600 142.9432 0019003  85.5726   4.8013 14.12699271477262
SRMSAT                  
1 37841U 11058D   21004.89818182  .00000291  00000-0  14870-4 0  9996
2 37841  19.9703 209.6042 0011825 297.0548 191.4897 14.10682281476738
M-CUBED & EXP-1 PRIME   
1 37855U 11061F   21004.47075383  .00002288  00000-0  11802-3 0  9996
2 37855 101.7263 202.8232 0168747 198.1380 161.3767 15.07038541501474
STRAND-1                
1 39090U 13009E   21004.56863676  .00000034  00000-0  26759-4 0  9998
2 39090  98.4370 210.5066 0009993  51.0129 309.1946 14.35162371411531
SOMP                    
1 39134U 13015E   21004.65888378  .00001956  00000-0  94490-4 0  9991
2 39134  64.8648 344.8115 0014085 219.1324 140.8787 15.21833540426665
BEESAT-3                
1 39135U 13015F   21004.45299831  .00001717  00000-0  91399-4 0  9990
2 39135  64.8669  12.0424 0020054 210.2177 149.7795 15.18793065425734
BEESAT-2                
1 39136U 13015G   21004.51500195  .00001465  00000-0  80393-4 0  9998
2 39136  64.8743  17.5731 0030254 264.0771  95.6907 15.18174476426025
ZACUBE-1 (TSHEPISOSAT)  
1 39417U 13066B   21005.47008550  .00000371  00000-0  52631-4 0  9999
2 39417  97.5783 358.3984 0058151 336.9004  22.9596 14.81402023384946
GOMX-1                  
1 39430U 13066Q   21005.50903870  .00000243  00000-0  53423-4 0  9995
2 39430  97.8068 297.9912 0149424 268.1989  90.2083 14.59517762379272
CUBEBUG-2 (LO-74)       
1 39440U 13066AA  21004.89135725  .00000366  00000-0  57330-4 0  9990
2 39440  97.6554 342.5283 0081078  47.0020 313.7948 14.76132836383495
FUNCUBE-1 (AO-73)       
1 39444U 13066AE  21005.48507797  .00000460  00000-0  62449-4 0  9994
2 39444  97.5706   0.7353 0057016 327.9773  31.7981 14.82285040383888
UWE-3                   
1 39446U 13066AG  21005.48246499  .00000396  00000-0  58667-4 0  9990
2 39446  97.6187 350.1713 0070141  11.9984 348.2878 14.78669379383016
SPROUT                  
1 39770U 14029E   21005.57040537  .00001039  00000-0  11893-3 0  9999
2 39770  97.9078 117.1634 0009558  29.2832 330.8886 14.88110444359114
UNISAT-6                
1 40012U 14033C   21005.13374057  .00000232  00000-0  41376-4 0  9998
2 40012  97.6872 215.9958 0059486  68.9528 291.8030 14.74221277352131
DUCHIFAT-1              
1 40021U 14033M   21005.08057785  .00000548  00000-0  61070-4 0  9991
2 40021  97.9594 303.7112 0012648 349.5780  10.5173 14.91132914355933
QB50P1                  
1 40025U 14033R   21005.36449937  .00000409  00000-0  49141-4 0  9991
2 40025  97.9255 295.7248 0012470   1.8485 358.2776 14.89297270355658
NUDT-PHONESAT           
1 40900U 15049B   21005.49088671  .00003286  00000-0  13341-3 0  9997
2 40900  97.4258  20.7650 0012214   1.8401 153.4578 15.25246475293978
ZDPS 2A                 
1 40901U 15049C   21005.51680286  .00001625  00000-0  80990-4 0  9991
2 40901  97.4619  14.6267 0014223  35.1530 116.3775 15.18900232293237
ZDPS 2B                 
1 40902U 15049D   21005.49870145  .00001740  00000-0  86466-4 0  9996
2 40902  97.4639  11.8908 0014235  33.1602 117.7584 15.18912556293204
XW-2A                   
1 40903U 15049E   21005.45607670  .00002743  00000-0  61676-4 0  9994
2 40903  97.2610  60.3336 0010985 245.8413 241.7079 15.44160677297632
KAITUO 1A               
1 40904U 15049F   21005.52813080  .00000811  00000-0  45659-4 0  9994
2 40904  97.4821   9.5943 0015741  47.4642  67.1116 15.15952628292857
2015-049G               
1 40905U 15049G   21005.51135315  .00000390  00000-0  24514-4 0  9991
2 40905  97.4934   6.7019 0016790  45.3189 113.3676 15.14778534292669
XW-2C                   
1 40906U 15049H   21005.52959971  .00001121  00000-0  60979-4 0  9993
2 40906  97.4822   9.9981 0015720  38.5285  80.8578 15.16411369292876
XW-2D                   
1 40907U 15049J   21005.49581111  .00000984  00000-0  53554-4 0  9994
2 40907  97.4807   9.7109 0015020  35.4335 115.5637 15.16686233292893
LILACSAT-2              
1 40908U 15049K   21005.54193987  .00000721  00000-0  42931-4 0  9997
2 40908  97.4986   7.8314 0017069  47.1851  76.4961 15.14244439292573
XW-2F                   
1 40910U 15049M   21005.51802999  .00001556  00000-0  78573-4 0  9995
2 40910  97.4703  12.5983 0015074  23.7258  95.4594 15.18490361292993
XW-2B                   
1 40911U 15049N   21005.49230429  .00001106  00000-0  59930-4 0  9993
2 40911  97.4819  10.4035 0015010  36.4840 127.6638 15.16608445292781
KAITUO 1B               
1 40912U 15049P   21005.52587333  .00001755  00000-0  82200-4 0  9993
2 40912  97.4467  16.9176 0014637 359.2095 152.7723 15.20956347293428
TIANWANG 1C (TW-1C)     
1 40926U 15051B   21005.52773935  .00103625  00000-0  42267-3 0  9993
2 40926  97.0512  66.1281 0002837  45.0771  64.6409 15.85861341298779
TIANWANG 1A (TW-1A)     
1 40928U 15051D   21005.52469171  .00003957  00000-0  87971-4 0  9998
2 40928  97.0923  34.3940 0010674 159.3690 357.3751 15.44188678296537
LAPAN-A2                
1 40931U 15052B   21003.47463961  .00000754  00000-0  15838-4 0  9991
2 40931   5.9984 348.9566 0013073 231.4372 128.4639 14.76657788284872
E-ST@R-II               
1 41459U 16025D   21005.34640569  .00003034  00000-0  15359-3 0  9998
2 41459  98.1208 132.1784 0161755 251.8255 106.5305 15.07208898257846
AAUSAT 4                
1 41460U 16025E   21005.42135307  .00004394  00000-0  21202-3 0  9992
2 41460  98.1199 135.3688 0149924 237.8690 120.7917 15.09876598258103
NUSAT-1 (FRESCO)        
1 41557U 16033B   21005.45718574  .00001926  00000-0  71470-4 0  9995
2 41557  97.3989 100.3983 0014874  93.3739  35.4167 15.28734064256628
BEESAT-4                
1 41619U 16040W   21004.43346028  .00001834  00000-0  76774-4 0  9990
2 41619  97.2943  64.9832 0010788 182.1574 177.9619 15.24752055240014
